[{"OBJECT_NAME":"STARLINK-5335","OBJECT_ID":"2023-065F","EPOCH":"2026-03-20T14:00:01.999872","MEAN_MOTION":15.21206348,"ECCENTRICITY":0.0002199,"INCLINATION":43.0006,"RA_OF_ASC_NODE":150.3491,"ARG_OF_PERICENTER":274.1219,"MEAN_ANOMALY":60.7021,"EPHEMERIS_TYPE":0,"CLASSIFICATION_TYPE":"U","NORAD_CAT_ID":56508,"ELEMENT_SET_NO":999,"REV_AT_EPOCH":582,"BSTAR":0.047130627,"MEAN_MOTION_DOT":0.01165555,"MEAN_MOTION_DDOT":0},{"OBJECT_NAME":"STARLINK-5334","OBJECT_ID":"2023-065G","EPOCH":"2026-03-20T14:00:01.999872","MEAN_MOTION":15.20764657,"ECCENTRICITY":0.00022714,"INCLINATION":43.001,"RA_OF_ASC_NODE":150.4325,"ARG_OF_PERICENTER":269.62,"MEAN_ANOMALY":29.0118,"EPHEMERIS_TYPE":0,"CLASSIFICATION_TYPE":"U","NORAD_CAT_ID":56509,"ELEMENT_SET_NO":999,"REV_AT_EPOCH":567,"BSTAR":0.056085919,"MEAN_MOTION_DOT":0.01369091,"MEAN_MOTION_DDOT":0},{"OBJECT_NAME":"STARLINK-5339","OBJECT_ID":"2023-065H","EPOCH":"2026-03-20T14:00:01.999872","MEAN_MOTION":15.20794734,"ECCENTRICITY":0.00018272,"INCLINATION":42.9997,"RA_OF_ASC_NODE":150.1058,"ARG_OF_PERICENTER":310.4806,"MEAN_ANOMALY":127.6041,"EPHEMERIS_TYPE":0,"CLASSIFICATION_TYPE":"U","NORAD_CAT_ID":56510,"ELEMENT_SET_NO":999,"REV_AT_EPOCH":562,"BSTAR":0.004768746,"MEAN_MOTION_DOT":0.00108502,"MEAN_MOTION_DDOT":0},{"OBJECT_NAME":"STARLINK-5351","OBJECT_ID":"2023-065J","EPOCH":"2026-03-20T14:00:01.999872","MEAN_MOTION":15.18646207,"ECCENTRICITY":0.00023757,"INCLINATION":43.0003,"RA_OF_ASC_NODE":150.3107,"ARG_OF_PERICENTER":275.6726,"MEAN_ANOMALY":72.6042,"EPHEMERIS_TYPE":0,"CLASSIFICATION_TYPE":"U","NORAD_CAT_ID":56511,"ELEMENT_SET_NO":999,"REV_AT_EPOCH":567,"BSTAR":0.0048303696,"MEAN_MOTION_DOT":0.00103165,"MEAN_MOTION_DDOT":0},{"OBJECT_NAME":"STARLINK-5349","OBJECT_ID":"2023-065K","EPOCH":"2026-03-20T14:00:01.999872","MEAN_MOTION":15.20718044,"ECCENTRICITY":0.00020377,"INCLINATION":42.9998,"RA_OF_ASC_NODE":150.1373,"ARG_OF_PERICENTER":306.7426,"MEAN_ANOMALY":113.2858,"EPHEMERIS_TYPE":0,"CLASSIFICATION_TYPE":"U","NORAD_CAT_ID":56512,"ELEMENT_SET_NO":999,"REV_AT_EPOCH":582,"BSTAR":0.0048844509,"MEAN_MOTION_DOT":0.00110929,"MEAN_MOTION_DDOT":0},{"OBJECT_NAME":"STARLINK-5329","OBJECT_ID":"2023-065L","EPOCH":"2026-03-20T14:00:01.999872","MEAN_MOTION":15.18678039,"ECCENTRICITY":0.00024352,"INCLINATION":43.0002,"RA_OF_ASC_NODE":150.2699,"ARG_OF_PERICENTER":288.8147,"MEAN_ANOMALY":77.6252,"EPHEMERIS_TYPE":0,"CLASSIFICATION_TYPE":"U","NORAD_CAT_ID":56513,"ELEMENT_SET_NO":999,"REV_AT_EPOCH":572,"BSTAR":0.0048745587,"MEAN_MOTION_DOT":0.00104222,"MEAN_MOTION_DDOT":0},{"OBJECT_NAME":"STARLINK-5348","OBJECT_ID":"2023-065N","EPOCH":"2026-03-20T14:00:01.999872","MEAN_MOTION":15.17183192,"ECCENTRICITY":0.00023009,"INCLINATION":43.0005,"RA_OF_ASC_NODE":150.4181,"ARG_OF_PERICENTER":263.9089,"MEAN_ANOMALY":39.3343,"EPHEMERIS_TYPE":0,"CLASSIFICATION_TYPE":"U","NORAD_CAT_ID":56515,"ELEMENT_SET_NO":999,"REV_AT_EPOCH":577,"BSTAR":0.0050806371,"MEAN_MOTION_DOT":0.00104053,"MEAN_MOTION_DDOT":0},{"OBJECT_NAME":"STARLINK-5342","OBJECT_ID":"2023-065P","EPOCH":"2026-03-20T14:00:01.999872","MEAN_MOTION":15.20148481,"ECCENTRICITY":0.00020838,"INCLINATION":42.9993,"RA_OF_ASC_NODE":150.1833,"ARG_OF_PERICENTER":285.9328,"MEAN_ANOMALY":117.3726,"EPHEMERIS_TYPE":0,"CLASSIFICATION_TYPE":"U","NORAD_CAT_ID":56516,"ELEMENT_SET_NO":999,"REV_AT_EPOCH":567,"BSTAR":0.0046612303,"MEAN_MOTION_DOT":0.00104,"MEAN_MOTION_DDOT":0},{"OBJECT_NAME":"STARLINK-5345","OBJECT_ID":"2023-065Q","EPOCH":"2026-03-20T14:00:01.999872","MEAN_MOTION":15.15891651,"ECCENTRICITY":0.00011464,"INCLINATION":43.0004,"RA_OF_ASC_NODE":150.6142,"ARG_OF_PERICENTER":244.0643,"MEAN_ANOMALY":335.6324,"EPHEMERIS_TYPE":0,"CLASSIFICATION_TYPE":"U","NORAD_CAT_ID":56517,"ELEMENT_SET_NO":999,"REV_AT_EPOCH":573,"BSTAR":0.06571456,"MEAN_MOTION_DOT":0.01397405,"MEAN_MOTION_DDOT":0},{"OBJECT_NAME":"STARLINK-5346","OBJECT_ID":"2023-065R","EPOCH":"2026-03-20T14:00:01.999872","MEAN_MOTION":15.17232843,"ECCENTRICITY":0.00019747,"INCLINATION":43.0004,"RA_OF_ASC_NODE":150.3258,"ARG_OF_PERICENTER":255.6865,"MEAN_ANOMALY":83.4064,"EPHEMERIS_TYPE":0,"CLASSIFICATION_TYPE":"U","NORAD_CAT_ID":56518,"ELEMENT_SET_NO":999,"REV_AT_EPOCH":577,"BSTAR":0.0035605311,"MEAN_MOTION_DOT":0.00072635,"MEAN_MOTION_DDOT":0},{"OBJECT_NAME":"STARLINK-6313","OBJECT_ID":"2023-065S","EPOCH":"2026-03-20T14:00:01.999872","MEAN_MOTION":15.15606047,"ECCENTRICITY":0.00019642,"INCLINATION":43.0006,"RA_OF_ASC_NODE":150.4814,"ARG_OF_PERICENTER":252.2466,"MEAN_ANOMALY":22.3097,"EPHEMERIS_TYPE":0,"CLASSIFICATION_TYPE":"U","NORAD_CAT_ID":56519,"ELEMENT_SET_NO":999,"REV_AT_EPOCH":578,"BSTAR":0.0054902757,"MEAN_MOTION_DOT":0.00107556,"MEAN_MOTION_DDOT":0},{"OBJECT_NAME":"STARLINK-6344","OBJECT_ID":"2023-065T","EPOCH":"2026-03-20T14:00:01.999872","MEAN_MOTION":15.16147587,"ECCENTRICITY":0.00021192,"INCLINATION":43.0006,"RA_OF_ASC_NODE":150.4612,"ARG_OF_PERICENTER":258.5098,"MEAN_ANOMALY":25.6371,"EPHEMERIS_TYPE":0,"CLASSIFICATION_TYPE":"U","NORAD_CAT_ID":56520,"ELEMENT_SET_NO":999,"REV_AT_EPOCH":568,"BSTAR":0.0052408025,"MEAN_MOTION_DOT":0.00104207,"MEAN_MOTION_DDOT":0},{"OBJECT_NAME":"STARLINK-6333","OBJECT_ID":"2023-065U","EPOCH":"2026-03-20T13:14:06.612288","MEAN_MOTION":15.0253875,"ECCENTRICITY":0.00013081,"INCLINATION":43.0026,"RA_OF_ASC_NODE":150.8818,"ARG_OF_PERICENTER":271.1422,"MEAN_ANOMALY":88.9271,"EPHEMERIS_TYPE":0,"CLASSIFICATION_TYPE":"U","NORAD_CAT_ID":56521,"ELEMENT_SET_NO":999,"REV_AT_EPOCH":15826,"BSTAR":7.8912067e-5,"MEAN_MOTION_DOT":8.63e-6,"MEAN_MOTION_DDOT":0},{"OBJECT_NAME":"STARLINK-6327","OBJECT_ID":"2023-065V","EPOCH":"2026-03-20T14:00:01.999872","MEAN_MOTION":15.17223988,"ECCENTRICITY":0.00024062,"INCLINATION":43.0004,"RA_OF_ASC_NODE":150.3067,"ARG_OF_PERICENTER":274.7641,"MEAN_ANOMALY":74.1207,"EPHEMERIS_TYPE":0,"CLASSIFICATION_TYPE":"U","NORAD_CAT_ID":56522,"ELEMENT_SET_NO":999,"REV_AT_EPOCH":578,"BSTAR":0.005029095,"MEAN_MOTION_DOT":0.00103102,"MEAN_MOTION_DDOT":0},{"OBJECT_NAME":"STARLINK-6328","OBJECT_ID":"2023-065W","EPOCH":"2026-03-20T14:00:01.999872","MEAN_MOTION":15.13940323,"ECCENTRICITY":0.00021639,"INCLINATION":43.001,"RA_OF_ASC_NODE":150.3329,"ARG_OF_PERICENTER":272.5136,"MEAN_ANOMALY":62.4923,"EPHEMERIS_TYPE":0,"CLASSIFICATION_TYPE":"U","NORAD_CAT_ID":56523,"ELEMENT_SET_NO":999,"REV_AT_EPOCH":557,"BSTAR":0.0039211343,"MEAN_MOTION_DOT":0.00072857,"MEAN_MOTION_DDOT":0},{"OBJECT_NAME":"STARLINK-6323","OBJECT_ID":"2023-065X","EPOCH":"2026-03-20T14:00:01.999872","MEAN_MOTION":15.14865567,"ECCENTRICITY":0.00017948,"INCLINATION":43.0006,"RA_OF_ASC_NODE":150.4962,"ARG_OF_PERICENTER":254.3754,"MEAN_ANOMALY":14.5791,"EPHEMERIS_TYPE":0,"CLASSIFICATION_TYPE":"U","NORAD_CAT_ID":56524,"ELEMENT_SET_NO":999,"REV_AT_EPOCH":578,"BSTAR":0.068131359,"MEAN_MOTION_DOT":0.01408318,"MEAN_MOTION_DDOT":0},{"OBJECT_NAME":"STARLINK-6329","OBJECT_ID":"2023-065Y","EPOCH":"2026-03-20T11:43:11.206560","MEAN_MOTION":15.02530992,"ECCENTRICITY":0.00014367,"INCLINATION":43.0029,"RA_OF_ASC_NODE":151.2672,"ARG_OF_PERICENTER":277.5508,"MEAN_ANOMALY":82.5171,"EPHEMERIS_TYPE":0,"CLASSIFICATION_TYPE":"U","NORAD_CAT_ID":56525,"ELEMENT_SET_NO":999,"REV_AT_EPOCH":15825,"BSTAR":1.974633e-5,"MEAN_MOTION_DOT":6.3e-7,"MEAN_MOTION_DDOT":0},{"OBJECT_NAME":"STARLINK-6317","OBJECT_ID":"2023-065Z","EPOCH":"2026-03-20T14:00:01.999872","MEAN_MOTION":15.13505503,"ECCENTRICITY":0.00022884,"INCLINATION":43.0003,"RA_OF_ASC_NODE":150.357,"ARG_OF_PERICENTER":268.642,"MEAN_ANOMALY":57.9211,"EPHEMERIS_TYPE":0,"CLASSIFICATION_TYPE":"U","NORAD_CAT_ID":56526,"ELEMENT_SET_NO":999,"REV_AT_EPOCH":568,"BSTAR":0.0040277436,"MEAN_MOTION_DOT":0.00073944,"MEAN_MOTION_DDOT":0},{"OBJECT_NAME":"STARLINK-6335","OBJECT_ID":"2023-065AA","EPOCH":"2026-03-20T11:36:46.752480","MEAN_MOTION":15.02537568,"ECCENTRICITY":0.00010805,"INCLINATION":43.0022,"RA_OF_ASC_NODE":151.2348,"ARG_OF_PERICENTER":275.0009,"MEAN_ANOMALY":85.071,"EPHEMERIS_TYPE":0,"CLASSIFICATION_TYPE":"U","NORAD_CAT_ID":56527,"ELEMENT_SET_NO":999,"REV_AT_EPOCH":15825,"BSTAR":5.5095444e-5,"MEAN_MOTION_DOT":5.41e-6,"MEAN_MOTION_DDOT":0},{"OBJECT_NAME":"STARLINK-6337","OBJECT_ID":"2023-065AB","EPOCH":"2026-03-20T11:39:58.930272","MEAN_MOTION":15.02528916,"ECCENTRICITY":0.00018571,"INCLINATION":43.0017,"RA_OF_ASC_NODE":151.2564,"ARG_OF_PERICENTER":272.3459,"MEAN_ANOMALY":87.7171,"EPHEMERIS_TYPE":0,"CLASSIFICATION_TYPE":"U","NORAD_CAT_ID":56528,"ELEMENT_SET_NO":999,"REV_AT_EPOCH":15825,"BSTAR":9.7444286e-5,"MEAN_MOTION_DOT":1.113e-5,"MEAN_MOTION_DDOT":0},{"OBJECT_NAME":"STARLINK-6307","OBJECT_ID":"2023-065AC","EPOCH":"2026-03-20T14:00:01.999872","MEAN_MOTION":15.10222975,"ECCENTRICITY":0.0001579,"INCLINATION":43,"RA_OF_ASC_NODE":138.2058,"ARG_OF_PERICENTER":282.6212,"MEAN_ANOMALY":40.2523,"EPHEMERIS_TYPE":0,"CLASSIFICATION_TYPE":"U","NORAD_CAT_ID":56529,"ELEMENT_SET_NO":999,"REV_AT_EPOCH":572,"BSTAR":0.0050508885,"MEAN_MOTION_DOT":0.00084796,"MEAN_MOTION_DDOT":0},{"OBJECT_NAME":"STARLINK-6318","OBJECT_ID":"2023-065AD","EPOCH":"2026-03-20T14:00:01.999872","MEAN_MOTION":15.15999791,"ECCENTRICITY":0.00010573,"INCLINATION":42.9999,"RA_OF_ASC_NODE":124.5977,"ARG_OF_PERICENTER":302.2845,"MEAN_ANOMALY":271.1803,"EPHEMERIS_TYPE":0,"CLASSIFICATION_TYPE":"U","NORAD_CAT_ID":56530,"ELEMENT_SET_NO":999,"REV_AT_EPOCH":577,"BSTAR":0.004831415,"MEAN_MOTION_DOT":0.00095527,"MEAN_MOTION_DDOT":0},{"OBJECT_NAME":"STARLINK-6280","OBJECT_ID":"2023-065AE","EPOCH":"2026-03-20T14:00:01.999872","MEAN_MOTION":15.23502111,"ECCENTRICITY":0.00016125,"INCLINATION":42.9993,"RA_OF_ASC_NODE":136.7224,"ARG_OF_PERICENTER":277.9627,"MEAN_ANOMALY":314.1258,"EPHEMERIS_TYPE":0,"CLASSIFICATION_TYPE":"U","NORAD_CAT_ID":56531,"ELEMENT_SET_NO":999,"REV_AT_EPOCH":577,"BSTAR":0.0051971688,"MEAN_MOTION_DOT":0.0012847,"MEAN_MOTION_DDOT":0}]
